STARLINK-30606          
1 58109U 23161N   23313.58334491 -.01665958  00000+0 -22809-1 0  9998
2 58109  53.0549 148.6281 0000880  80.6246 188.5380 15.59675191  4177
STARLINK-30596          
1 58110U 23161P   23313.58334491 -.01666333  00000+0 -22816-1 0  9996
2 58110  53.0549 148.6266 0000934  77.4784 192.2852 15.59673273  4178
STARLINK-30595          
1 58111U 23161Q   23313.58334491 -.01664937  00000+0 -22797-1 0  9993
2 58111  53.0550 148.6255 0000925  82.6564 187.7098 15.59670767  4179
STARLINK-30593          
1 58112U 23161R   23313.58334491 -.01664088  00000+0 -22784-1 0  9997
2 58112  53.0549 148.6243 0001166 104.0730 166.8936 15.59668794  4285
STARLINK-30353          
1 58113U 23161S   23313.58334491 -.01664847  00000+0 -22799-1 0  9997
2 58113  53.0549 148.6227 0000864  89.0943 182.4745 15.59667427  4172
STARLINK-30572          
1 58114U 23161T   23313.58334491 -.01665602  00000+0 -22812-1 0  9994
2 58114  53.0549 148.6216 0000827  81.8858 190.2842 15.59666027  4175
STARLINK-30580          
1 58115U 23161U   23313.58334491 -.01665262  00000+0 -22808-1 0  9992
2 58115  53.0549 148.6205 0000926  83.0941 189.6778 15.59663858  4170
STARLINK-30493          
1 58116U 23161V   23313.58334491 -.01664576  00000+0 -22800-1 0  9992
2 58116  53.0549 148.6193 0000851  87.8141 185.5591 15.59661687  4174
STARLINK-30601          
1 58117U 23161W   23313.58334491 -.01665246  00000+0 -22811-1 0  9990
2 58117  53.0549 148.6178 0000911  87.1269 186.8477 15.59660295  4170
STARLINK-30795          
1 58118U 23162A   23313.58334491 -.01562618  00000+0 -13043-1 0  9998
2 58118  42.9993  88.0459 0001261 283.8170 353.0533 15.71924358  4083
STARLINK-30765          
1 58119U 23162B   23313.58334491 -.01669219  00000+0 -13949-1 0  9999
2 58119  42.9995  88.0442 0001407 283.7236 353.7251 15.72089650  4185
STARLINK-30768          
1 58120U 23162C   23313.58334491 -.01528764  00000+0 -12700-1 0  9994
2 58120  42.9993  88.0419 0001803 287.5276 350.7467 15.71968725  4088
STARLINK-30799          
1 58121U 23162D   23313.58334491 -.01669678  00000+0 -13963-1 0  9997
2 58121  42.9997  88.0396 0001356 282.9292 356.0478 15.72074089  4136
STARLINK-30759          
1 58122U 23162E   23313.58334491 -.01671718  00000+0 -13985-1 0  9990
2 58122  42.9993  88.0379 0001591 286.4856 353.2553 15.72067051  4189
STARLINK-30781          
1 58123U 23162F   23313.58334491 -.01662419  00000+0 -13904-1 0  9990
2 58123  42.9992  88.0361 0001831 275.6142   4.8931 15.72052713  4183
STARLINK-30754          
1 58124U 23162G   23313.58334491 -.01670110  00000+0 -13980-1 0  9992
2 58124  43.0006  88.0344 0001626 282.0003 359.2691 15.72049670  4080
STARLINK-30766          
1 58125U 23162H   23313.58334491 -.01669485  00000+0 -13979-1 0  9994
2 58125  42.9992  88.0318 0001661 277.8027   4.2310 15.72041054  4174
STARLINK-30767          
1 58126U 23162J   23313.58334491 -.01659312  00000+0 -13894-1 0  9999
2 58126  42.9992  88.0297 0001266 259.9552  22.8451 15.72026354  4185
STARLINK-30790          
1 58127U 23162K   23313.58334491 -.01669161  00000+0 -13986-1 0  9995
2 58127  42.9992  88.0279 0001660 277.5147   6.0470 15.72024284  4185
STARLINK-30787          
1 58128U 23162L   23313.58334491 -.01661103  00000+0 -13918-1 0  9999
2 58128  42.9991  88.0263 0001486 255.3198  29.0069 15.72012215  4184
STARLINK-30756          
1 58129U 23162M   23313.58334491 -.01666489  00000+0 -13972-1 0  9992
2 58129  42.9993  88.0238 0001636 277.9044   7.1860 15.72005676  4185
STARLINK-30783          
1 58130U 23162N   23313.58334491 -.01666755  00000+0 -13979-1 0  9997
2 58130  42.9990  88.0224 0001593 280.3241   5.5283 15.71998681  4185
STARLINK-30757          
1 58131U 23162P   23313.58334491 -.01667855  00000+0 -13998-1 0  9991
2 58131  42.9992  88.0200 0000924 293.7743 352.8423 15.71991446  4135
STARLINK-30770          
1 58132U 23162Q   23313.58334491 -.01667816  00000+0 -14003-1 0  9997
2 58132  42.9992  88.0161 0001716 279.0550   9.0887 15.71974124  4189
STARLINK-30758          
1 58133U 23162R   23313.58334491 -.01599522  00000+0 -13387-1 0  9990
2 58133  42.9991  88.0182 0000860 261.6380  25.7660 15.71932311  4185
STARLINK-30761          
1 58134U 23162S   23313.58334491 -.01550554  00000+0 -12956-1 0  9994
2 58134  42.9992  88.0140 0001699 274.1893  14.7664 15.71873489  4182
STARLINK-30772          
1 58135U 23162T   23313.58334491 -.01454813  00000+0 -12348-1 0  9991
2 58135  42.9993  88.0119 0002250 265.4019  24.3693 15.71795233  4085
STARLINK-30776          
1 58136U 23162U   23313.58334491 -.01672209  00000+0 -14060-1 0  9996
2 58136  42.9991  88.0101 0001331 286.4850   3.9461 15.71953027  4173
STARLINK-30782          
1 58137U 23162V   23313.58334491 -.01665285  00000+0 -13998-1 0  9992
2 58137  42.9993  88.0088 0001900 276.0012  15.1952 15.71940351  4184
STARLINK-30769          
1 58138U 23162W   23313.58334491 -.01588165  00000+0 -13316-1 0  9998
2 58138  42.9994  88.0042 0001487 279.7689  12.9846 15.71863340  4185
